NORAD_CAT_ID,OBJECT_NAME,OBJECT_TYPE,EPOCH,MEAN_MOTION,ECCENTRICITY,INCLINATION,RA_OF_ASC_NODE,ARG_OF_PERICENTER,MEAN_ANOMALY,BSTAR,MEAN_MOTION_DOT,MEAN_MOTION_DDOT,TLE_LINE0,TLE_LINE1,TLE_LINE2,SEMIMAJOR_AXIS,PERIOD,APOGEE,PERIGEE,DECAYED
53144.0,STARLINK-4100,PAYLOAD,2022-12-02 17:38:34,15.08839558,0.0003125,53.2188,129.5106,49.1924,310.9338,4.2325e-05,3.85e-06,0.0,0 STARLINK-4100,1 53144U 22083N   22336.73512730  .00000385  00000-0  42325-4 0  9992,2 53144  53.2188 129.5106 0003125  49.1924 310.9338 15.08839558 21125,6917.882,95.438,541.909,537.585,0.0
53144.0,STARLINK-4100,PAYLOAD,2022-12-03 11:07:49,15.0884185,0.0003077,53.2191,126.2394,50.9138,309.2128,1.6039e-05,-3.3e-07,0.0,0 STARLINK-4100,1 53144U 22083N   22337.46376645 -.00000033  00000-0  16039-4 0  9990,2 53144  53.2191 126.2394 0003077  50.9138 309.2128 15.08841850 21862,6917.875,95.437,541.868,537.611,0.0
53144.0,STARLINK-4100,PAYLOAD,2022-12-03 15:53:59,15.08836844,0.0003092,53.219,125.3474,51.0799,309.0468,-2.7612e-05,-7.28e-06,0.0,0 STARLINK-4100,1 53144U 22083N   22337.66249121 -.00000728  00000-0 -27612-4 0  9991,2 53144  53.2190 125.3474 0003092  51.0799 309.0468 15.08836844 21268,6917.89,95.438,541.894,537.616,0.0
53144.0,STARLINK-4100,PAYLOAD,2022-12-04 03:01:41,15.08832243,0.0003057,53.2187,123.2656,48.4485,311.6769,4.5766e-05,4.4e-06,0.0,0 STARLINK-4100,1 53144U 22083N   22338.12617318  .00000440  00000-0  45766-4 0  9999,2 53144  53.2187 123.2656 0003057  48.4485 311.6769 15.08832243 21965,6917.904,95.438,541.884,537.654,0.0
53144.0,STARLINK-4100,PAYLOAD,2022-12-04 10:58:36,15.08835998,0.0002995,53.2192,121.7798,48.8047,311.3203,6.2889e-05,7.12e-06,0.0,0 STARLINK-4100,1 53144U 22083N   22338.45737186  .00000712  00000-0  62889-4 0  9998,2 53144  53.2192 121.7798 0002995  48.8047 311.3203 15.08835998 21385,6917.893,95.438,541.83,537.686,0.0
53144.0,STARLINK-4100,PAYLOAD,2022-12-04 15:44:46,15.08838622,0.0002981,53.2192,120.8876,49.7054,310.4198,7.981e-05,9.82e-06,0.0,0 STARLINK-4100,1 53144U 22083N   22338.65609017  .00000982  00000-0  79810-4 0  9992,2 53144  53.2192 120.8876 0002981  49.7054 310.4198 15.08838622 22049,6917.885,95.438,541.812,537.687,0.0
53144.0,STARLINK-4100,PAYLOAD,2022-12-04 17:20:09,15.08841758,0.000303,53.2194,120.5902,50.2537,309.8721,0.00010176,1.331e-05,0.0,0 STARLINK-4100,1 53144U 22083N   22338.72232841  .00001331  00000-0  10176-3 0  9995,2 53144  53.2194 120.5902 0003030  50.2537 309.8721 15.08841758 21426,6917.875,95.437,541.836,537.644,0.0
53144.0,STARLINK-4100,PAYLOAD,2022-12-04 22:06:18,15.08846084,0.0003068,53.2194,119.6982,49.9793,310.1468,0.00011778,1.587e-05,0.0,0 STARLINK-4100,1 53144U 22083N   22338.92104529  .00001587  00000-0  11778-3 0  9990,2 53144  53.2194 119.6982 0003068  49.9793 310.1468 15.08846084 22086,6917.861999999999,95.437,541.849,537.604,0.0
53144.0,STARLINK-4100,PAYLOAD,2022-12-05 02:52:26,15.08863721,0.0002697,53.2197,118.8064,35.9218,324.1955,-6.4495e-05,-1.316e-05,0.0,0 STARLINK-4100,1 53144U 22083N   22339.11975590 -.00001316  00000-0 -64495-4 0  9993,2 53144  53.2197 118.8064 0002697  35.9218 324.1955 15.08863721 22112,6917.808000000001,95.436,541.539,537.807,0.0
53144.0,STARLINK-4100,PAYLOAD,2022-12-05 15:35:32,15.08847173,0.0002726,53.2199,116.4278,48.7838,311.3389,0.00012411,1.688e-05,0.0,0 STARLINK-4100,1 53144U 22083N   22339.64968165  .00001688  00000-0  12411-3 0  9991,2 53144  53.2199 116.4278 0002726  48.7838 311.3389 15.08847173 22198,6917.858,95.437,541.609,537.8380000000002,0.0
53144.0,STARLINK-4100,PAYLOAD,2022-12-05 18:46:19,15.08841007,0.0003038,53.2198,115.8331,50.3779,309.7481,0.00014763,2.062e-05,0.0,0 STARLINK-4100,1 53144U 22083N   22339.78216636  .00002062  00000-0  14763-3 0  9994,2 53144  53.2198 115.8331 0003038  50.3779 309.7481 15.08841007 21586,6917.877,95.437,541.844,537.641,0.0
53144.0,STARLINK-4100,PAYLOAD,2022-12-06 09:04:47,15.0884656,0.0003061,53.2188,113.1571,50.7577,309.3687,0.00012205,1.655e-05,0.0,0 STARLINK-4100,1 53144U 22083N   22340.37832309  .00001655  00000-0  12205-3 0  9998,2 53144  53.2188 113.1571 0003061  50.7577 309.3687 15.08846560 21671,6917.86,95.437,541.8430000000002,537.6080000000002,0.0
53144.0,STARLINK-4100,PAYLOAD,2022-12-06 20:12:30,15.08831904,0.000298,53.2201,111.0757,48.9163,311.2086,-5.0498e-05,-1.092e-05,0.0,0 STARLINK-4100,1 53144U 22083N   22340.84201485 -.00001092  00000-0 -50498-4 0  9999,2 53144  53.2201 111.0757 0002980  48.9163 311.2086 15.08831904 21748,6917.905,95.438,541.832,537.7090000000002,0.0
53144.0,STARLINK-4100,PAYLOAD,2022-12-07 15:17:07,15.08839665,0.0002941,53.2181,107.5098,45.9589,314.1645,3.8314e-05,3.21e-06,0.0,0 STARLINK-4100,1 53144U 22083N   22341.63688885  .00000321  00000-0  38314-4 0  9995,2 53144  53.2181 107.5098 0002941  45.9589 314.1645 15.08839665 22497,6917.880999999999,95.438,541.781,537.712,0.0
53144.0,STARLINK-4100,PAYLOAD,2022-12-07 20:03:15,15.08850582,0.0002998,53.2204,106.6152,51.6817,308.4445,0.0001460999999999,2.038e-05,0.0,0 STARLINK-4100,1 53144U 22083N   22341.83560037  .00002038  00000-0  14610-3 0  9994,2 53144  53.2204 106.6152 0002998  51.6817 308.4445 15.08850582 22523,6917.848000000001,95.437,541.7869999999998,537.639,0.0
53144.0,STARLINK-4100,PAYLOAD,2022-12-08 08:46:21,15.08850329,0.000298,53.219,104.2359,49.5978,310.5274,0.00026084,3.867e-05,0.0,0 STARLINK-4100,1 53144U 22083N   22342.36552116  .00003867  00000-0  26084-3 0  9991,2 53144  53.2190 104.2359 0002980  49.5978 310.5274 15.08850329 21976,6917.849,95.437,541.775,537.6519999999998,0.0
53144.0,STARLINK-4100,PAYLOAD,2022-12-08 15:07:53,15.08851865,0.0003075,53.22,103.0477,50.8753,309.2512,0.00026185,3.883e-05,0.0,0 STARLINK-4100,1 53144U 22083N   22342.63047994  .00003883  00000-0  26185-3 0  9994,2 53144  53.2200 103.0477 0003075  50.8753 309.2512 15.08851865 22010,6917.844,95.437,541.836,537.582,0.0
53144.0,STARLINK-4100,PAYLOAD,2022-12-09 00:40:11,15.08860302,0.0003011,53.2202,101.2697,61.2662,298.8633,0.00038475,5.844e-05,0.0,0 STARLINK-4100,1 53144U 22083N   22343.02791560  .00005844  00000-0  38475-3 0  9997,2 53144  53.2202 101.2697 0003011  61.2662 298.8633 15.08860302 22700,6917.818,95.436,541.766,537.6,0.0
53144.0,STARLINK-4100,PAYLOAD,2022-12-09 08:37:08,15.08817384,0.0003063,53.2203,99.7822,33.6656,326.453,-0.00051307,-8.441e-05,0.0,0 STARLINK-4100,1 53144U 22083N   22343.35912950 -.00008441  00000-0 -51307-3 0  9998,2 53144  53.2203  99.7822 0003063  33.6656 326.4530 15.08817384 22127,6917.95,95.439,541.933,537.696,0.0
53144.0,STARLINK-4100,PAYLOAD,2022-12-10 06:52:32,15.08825882,0.0002961,53.221,95.6183,16.9949,343.1141,-0.00020274,-3.513e-05,0.0,0 STARLINK-4100,1 53144U 22083N   22344.28648925 -.00003513  00000-0 -20274-3 0  9993,2 53144  53.2210  95.6183 0002961  16.9949 343.1141 15.08825882 22895,6917.924,95.438,541.837,537.74,0.0
53144.0,STARLINK-4100,PAYLOAD,2022-12-10 13:14:05,15.08834215,0.0002738,53.2205,94.4282,50.2092,309.9141,9.5326e-06,-1.37e-06,0.0,0 STARLINK-4100,1 53144U 22083N   22344.55145055 -.00000137  00000-0  95326-5 0  9999,2 53144  53.2205  94.4282 0002738  50.2092 309.9141 15.08834215 22304,6917.898,95.438,541.6569999999998,537.869,0.0
53144.0,STARLINK-4100,PAYLOAD,2022-12-10 18:00:14,15.08843549,0.0003025,53.2194,93.5366,42.9441,317.1787,7.2275e-05,8.62e-06,0.0,0 STARLINK-4100,1 53144U 22083N   22344.75016549  .00000862  00000-0  72275-4 0  9997,2 53144  53.2194  93.5366 0003025  42.9441 317.1787 15.08843549 22969,6917.87,95.437,541.827,537.6419999999998,0.0
53144.0,STARLINK-4100,PAYLOAD,2022-12-11 13:04:52,15.08838805,0.0002828,53.2178,89.9642,50.9132,309.2111,0.0003198,4.805e-05,0.0,0 STARLINK-4100,1 53144U 22083N   22345.54504840  .00004805  00000-0  31980-3 0  9999,2 53144  53.2178  89.9642 0002828  50.9132 309.2111 15.08838805 22459,6917.884,95.438,541.705,537.793,0.0
53144.0,STARLINK-4100,PAYLOAD,2022-12-11 19:26:25,15.08838601,0.0003568,53.2183,88.7768,35.9245,324.1987,0.00025998,3.851e-05,0.0,0 STARLINK-4100,1 53144U 22083N   22345.81001276  .00003851  00000-0  25998-3 0  9996,2 53144  53.2183  88.7768 0003568  35.9245 324.1987 15.08838601 22496,6917.885,95.438,542.2180000000002,537.281,0.0
53144.0,STARLINK-4100,PAYLOAD,2022-12-12 11:20:16,15.088415,0.0002737,53.2174,85.8009,41.2354,318.8845,8.1746e-05,1.013e-05,0.0,0 STARLINK-4100,1 53144U 22083N   22346.47240924  .00001013  00000-0  81746-4 0  9996,2 53144  53.2174  85.8009 0002737  41.2354 318.8845 15.08841500 22596,6917.876,95.437,541.634,537.847,0.0
53144.0,STARLINK-4100,PAYLOAD,2022-12-12 16:06:25,15.08844502,0.0002797,53.2175,84.9091,41.718,318.4025,0.00014144,1.964e-05,0.0,0 STARLINK-4100,1 53144U 22083N   22346.67112828  .00001964  00000-0  14144-3 0  9991,2 53144  53.2175  84.9091 0002797  41.7180 318.4025 15.08844502 22621,6917.8669999999975,95.437,541.6669999999998,537.797,0.0
53144.0,STARLINK-4100,PAYLOAD,2022-12-13 09:35:40,15.08839206,0.0002597,53.2195,81.6399,52.3366,307.7862,5.3573e-05,5.64e-06,0.0,0 STARLINK-4100,1 53144U 22083N   22347.39977112  .00000564  00000-0  53573-4 0  9991,2 53144  53.2195  81.6399 0002597  52.3366 307.7862 15.08839206 23367,6917.8830000000025,95.438,541.544,537.951,0.0
53144.0,STARLINK-4100,PAYLOAD,2022-12-13 17:32:35,15.08839737,0.0002759,53.2168,80.15100000000002,39.1729,320.9463,3.2001e-05,2.21e-06,0.0,0 STARLINK-4100,1 53144U 22083N   22347.73097177  .00000221  00000-0  32001-4 0  9996,2 53144  53.2168  80.1510 0002759  39.1729 320.9463 15.08839737 22780,6917.880999999999,95.438,541.655,537.8380000000002,0.0
53144.0,STARLINK-4100,PAYLOAD,2022-12-14 12:37:13,15.08846126,0.0002673,53.2173,76.5828,38.294,321.8241,0.00018876,2.718e-05,0.0,0 STARLINK-4100,1 53144U 22083N   22348.52584931  .00002718  00000-0  18876-3 0  9999,2 53144  53.2173  76.5828 0002673  38.2940 321.8241 15.08846126 22905,6917.861999999999,95.437,541.576,537.878,0.0
